ONEWEB-0055             
1 45443U 20020V   21047.25001157 -.00004577  00000-0 -12959-1 0  9991
2 45443  87.8824  48.0887 0001917  89.5394 298.1823 13.11410338 47447
ONEWEB-0093             
1 45444U 20020W   21047.25001157 -.00006065  00000-0 -17158-1 0  9992
2 45444  87.8865  48.1421 0001639  86.8421 124.4611 13.11425232 47502
ONEWEB-0029             
1 45445U 20020X   21047.25001157 -.00004524  00000-0 -12807-1 0  9997
2 45445  87.8851  48.1235 0001797  88.6526 306.4196 13.11409876 47485
ONEWEB-0068             
1 45446U 20020Y   21047.25001157 -.00006384  00000-0 -18060-1 0  9991
2 45446  87.8866  48.1419 0002276 101.8965 138.9202 13.11420718 47433
ONEWEB-0046             
1 45447U 20020Z   21047.25001157 -.00006465  00000-0 -18288-1 0  9994
2 45447  87.8868  48.1450 0001704  95.6881 159.8528 13.11420102 47444
ONEWEB-0063             
1 45448U 20020AA  21046.91668981  .00042555  00000-0  11952+0 0  9998
2 45448  87.8842  48.2311 0001698 113.0254 163.9330 13.11396580  1725
ONEWEB-0019             
1 45449U 20020AB  21047.25001157 -.00006282  00000-0 -17772-1 0  9990
2 45449  87.8871  48.1150 0001784  86.0115 147.4053 13.11421994 47366
ONEWEB-0094             
1 45450U 20020AC  21047.25001157 -.01380531  00000-0 -32545+0 0  9998
2 45450  87.6573  34.9727 0026661 177.8586 256.6103 14.57725792 49488
ONEWEB-0087             
1 45451U 20020AD  21047.25001157 -.00004747  00000-0 -13437-1 0  9991
2 45451  87.8856  48.1426 0001807  88.5486 291.8409 13.11410832 47416
ONEWEB-0082             
1 45452U 20020AE  21047.25001157 -.00004834  00000-0 -13683-1 0  9992
2 45452  87.8838  48.1147 0002031  94.5456 278.4990 13.11410251 47502
ONEWEB-0050             
1 45453U 20020AF  21047.25001157  .00021036  00000-0  19136-2 0  9994
2 45453  87.5427  33.6121 0026318 172.3062 126.9341 14.94839773 49636
ONEWEB-0034             
1 45454U 20020AG  21047.25001157 -.00005974  00000-0 -16905-1 0  9990
2 45454  87.8858  48.1371 0001650  98.6372 215.7110 13.11412525 47428
ONEWEB-0060             
1 45455U 20020AH  21047.25001157 -.00006354  00000-0 -17975-1 0  9992
2 45455  87.8866  48.1281 0001749  93.3621 191.6066 13.11418487 47386
ONEWEB-0086             
1 45456U 20020AJ  21047.25001157 -.00006141  00000-0 -17374-1 0  9990
2 45456  87.8866  48.1267 0001722  95.1886 123.5385 13.11416283 47420
ONEWEB-0088             
1 45457U 20020AK  21047.25001157 -.00006132  00000-0 -17349-1 0  9993
2 45457  87.8857  48.1631 0001682  98.1913 208.8318 13.11414789 47371
ONEWEB-0102             
1 47258U 20100A   21047.16667824 -.01398580  00000-0 -56984+0 0  9990
2 47258  87.5614  19.8772 0012039  71.7546  69.2817 14.30810953  8979
ONEWEB-0109             
1 47259U 20100B   21047.16667824 -.01260872  00000-0 -73311+0 0  9996
2 47259  87.4542  19.7754 0011375  73.5113 250.1166 14.12194922  8890
ONEWEB-0110             
1 47260U 20100C   21046.91668981 -.01394072  00000-0 -59934+0 0  9990
2 47260  87.5458  19.9288 0011359  73.4274 351.3112 14.28032395  1757
ONEWEB-0111             
1 47261U 20100D   21047.16667824 -.01200652  00000-0 -65579+0 0  9996
2 47261  87.3949  19.6947 0012142  74.6379 145.7680 14.15410170  8872
ONEWEB-0114             
1 47262U 20100E   21047.16667824 -.01337122  00000-0 -89209+0 0  9996
2 47262  87.3956  19.6926 0011817  63.6664 248.3050 14.04828137  8876
ONEWEB-0117             
1 47263U 20100F   21046.91668981 -.01346926  00000-0 -84555+0 0  9995
2 47263  87.4138  19.8096 0012949  80.2579 259.6443 14.08224027  1749
ONEWEB-0118             
1 47264U 20100G   21046.91668981 -.01378109  00000-0 -51427+0 0  9996
2 47264  87.5866  19.9380 0014164  64.9971 260.8820 14.35227993  1784
ONEWEB-0119             
1 47265U 20100H   21047.16667824 -.01373539  00000-0 -61188+0 0  9997
2 47265  87.5482  19.8593 0015702  64.8388   8.5500 14.26683875  8968
ONEWEB-0120             
1 47266U 20100J   21047.16667824 -.01415310  00000-0 -61163+0 0  9995
2 47266  87.5546  19.8790 0012390  73.9379  35.1147 14.27807771  8978
ONEWEB-0121             
1 47267U 20100K   21047.16667824 -.01181866  00000-0 -64813+0 0  9997
2 47267  87.4140  19.7294 0015047  76.2974 277.4157 14.15119756  8894
ONEWEB-0122             
1 47268U 20100L   21047.16667824 -.01137597  00000-0 -71844+0 0  9992
2 47268  87.3674  19.7403 0011198  71.0501 153.6927 14.07314525  8869
ONEWEB-0123             
1 47269U 20100M   21047.16667824 -.01424290  00000-0 -65236+0 0  9990
2 47269  87.5287  19.8566 0011092  70.9759 281.9007 14.24805411  8962
ONEWEB-0124             
1 47270U 20100N   21046.91668981 -.01369325  00000-0 -80253+0 0  9992
2 47270  87.4097  19.9418 0011974  63.3158 329.9103 14.12063322  1739
ONEWEB-0125             
1 47271U 20100P   21047.16667824 -.01428880  00000-0 -75336+0 0  9994
2 47271  87.4736  19.8193 0011321  63.0089 178.8171 14.17354104  8914
ONEWEB-0126             
1 47272U 20100Q   21046.91668981 -.01398399  00000-0 -59575+0 0  9990
2 47272  87.5543  19.9602 0011297  58.2400  72.1104 14.28515027  1799
ONEWEB-0127             
1 47273U 20100R   21047.16667824 -.01392050  00000-0 -49391+0 0  9997
2 47273  87.5995  19.8655 0013382  67.2808 215.9671 14.37811635  8985
ONEWEB-0128             
1 47274U 20100S   21047.16667824 -.01421060  00000-0 -52791+0 0  9990
2 47274  87.6164  19.8414 0013657  47.5362 242.6815 14.35563344  8996
ONEWEB-0129             
1 47275U 20100T   21046.91668981 -.01347467  00000-0 -64288+0 0  9990
2 47275  87.4914  19.9339 0014805  76.0053 118.8874 14.23019805  1778
ONEWEB-0130             
1 47276U 20100U   21047.16667824 -.01464788  00000-0 -71798+0 0  9994
2 47276  87.5057  19.9028 0011247  61.2950 290.3732 14.21328061  8942
ONEWEB-0131             
1 47277U 20100V   21047.16667824 -.01420669  00000-0 -61104+0 0  9995
2 47277  87.5446  19.8403 0010375  68.4100 113.9454 14.28079477  8951
ONEWEB-0132             
1 47278U 20100W   21047.16667824 -.01373266  00000-0 -78571+0 0  9992
2 47278  87.4417  19.7698 0011947  75.2044 104.6209 14.13384538  8892
ONEWEB-0133             
1 47279U 20100X   21047.16667824 -.01452482  00000-0 -57742+0 0  9998
2 47279  87.5809  19.9059 0014472  62.3188 193.0883 14.32183593  8983
ONEWEB-0134             
1 47280U 20100Y   21047.16667824 -.01450730  00000-0 -62039+0 0  9999
2 47280  87.5657  19.9023 0014406  71.2026 134.1829 14.28421964  8960
ONEWEB-0135             
1 47281U 20100Z   21047.16667824 -.01417278  00000-0 -54835+0 0  9995
2 47281  87.5987  19.8552 0014646  48.6108  72.5989 14.33482442  8986
ONEWEB-0136             
1 47282U 20100AA  21047.16667824 -.01439806  00000-0 -69275+0 0  9991
2 47282  87.5230  19.8724 0010743  64.0642  51.1449 14.22253825  8947
ONEWEB-0137             
1 47283U 20100AB  21047.16667824 -.01334786  00000-0 -79614+0 0  9991
2 47283  87.4321  19.7856 0013363  60.9813 311.4879 14.10997644  8893
ONEWEB-0138             
1 47284U 20100AC  21047.16667824 -.01248352  00000-0 -65042+0 0  9995
2 47284  87.4509  19.7061 0014244  71.4501 229.6200 14.18064912  8899
ONEWEB-0139             
1 47285U 20100AD  21047.16667824 -.01437202  00000-0 -57108+0 0  9994
2 47285  87.5927  19.9095 0012673  49.1796 194.2971 14.32184535  8988
ONEWEB-0140             
1 47286U 20100AE  21047.16667824 -.01191196  00000-0 -42189+0 0  9997
2 47286  87.5798  19.7505 0012866  77.2163 294.0902 14.37927854  8935
ONEWEB-0141             
1 47287U 20100AF  21047.16667824 -.01335016  00000-0 -56163+0 0  9996
2 47287  87.5572  19.7730 0014301  59.3228 106.2464 14.29558176  8930
ONEWEB-0142             
1 47288U 20100AG  21047.16667824 -.01439880  00000-0 -66677+0 0  9992
2 47288  87.5370  19.8871 0010164  66.2877 223.5499 14.24273140  8957
ONEWEB-0143             
1 47289U 20100AH  21046.91668981 -.01374897  00000-0 -74225+0 0  9994
2 47289  87.4693  19.8720 0015267  75.6442  29.3559 14.16507733  1736
ONEWEB-0144             
1 47290U 20100AJ  21047.16667824 -.01362481  00000-0 -76502+0 0  9995
2 47290  87.4599  19.7819 0012216  78.6993 356.9795 14.14372682  8892
ONEWEB-0145             
1 47291U 20100AK  21047.16667824 -.01368210  00000-0 -41698+0 0  9990
2 47291  87.6417  19.7952 0014390  48.2400 231.1501 14.45280575  8996
ONEWEB-0146             
1 47292U 20100AL  21047.16667824 -.01332212  00000-0 -58230+0 0  9994
2 47292  87.5299  19.8193 0014987  68.9155 194.7085 14.27562431  8939
ONEWEB-0147             
1 47293U 20100AM  21046.91668981 -.01369022  00000-0 -76065+0 0  9997
2 47293  87.4631  19.8743 0012911  62.2854  34.9910 14.14956015  1743
